SL-3 R/B                
1 13403U 82079B   26083.49665964  .00005354  00000+0  21158-3 0  9991
2 13403  81.1482 175.5949 0025492 115.9830 244.4034 15.24999278379956
SL-14 R/B               
1 13553U 82092B   26083.52980900  .00000408  00000+0  43120-4 0  9995
2 13553  82.5666 127.5175 0018851 250.4322 233.0055 14.86679265331134
SL-3 R/B                
1 13819U 83010B   26083.44738776  .00014508  00000+0  28661-3 0  9992
2 13819  81.1051 344.1499 0016471   1.5574 358.5719 15.46854970360225
SL-3 R/B                
1 14208U 83075B   26083.45042527  .00010034  00000+0  26208-3 0  9994
2 14208  97.6147  88.5908 0021733 171.6141 188.5472 15.38757838332420
COSMOS 1536             
1 14699U 84013A   26083.49391226  .00006738  00000+0  27616-3 0  9998
2 14699  82.5422  93.1283 0012942 224.5765 135.4432 15.24020139274876
SL-14 R/B               
1 14820U 84027B   26083.37262622  .00000518  00000+0  56456-4 0  9998
2 14820  82.5406 231.2398 0016525 286.2092  73.7306 14.85991036249814
SL-8 R/B                
1 15483U 85006B   26083.40927076  .00000338  00000+0  12058-3 0  9996
2 15483  74.0442 234.0605 0017850 147.7791 275.8883 14.37793719156140
SL-12 R/B(2)            
1 15772U 85042D   26083.40673584  .00000160  00000+0  93335-4 0  9990
2 15772  71.1077  56.6329 0032855 103.7347  10.1998 14.21986348116480
SL-14 R/B               
1 15945U 85069B   26083.21831373  .00000534  00000+0  57528-4 0  9991
2 15945  82.5303  11.2748 0019740 140.4885 219.7775 14.86448522174993
SL-16 R/B               
1 16182U 85097B   26083.39876298  .00000158  00000+0  10334-3 0  9995
2 16182  71.0011 109.5866 0009538 242.4171 215.2382 14.16602758 89315
SL-14 R/B               
1 16496U 86006B   26083.46083807  .00000837  00000+0  86416-4 0  9997
2 16496  82.5243 245.8312 0075488 222.9341 136.5970 14.86836406151400
COSMOS 1743             
1 16719U 86034A   26083.40376971  .00040926  00000+0  51005-3 0  9995
2 16719  82.5305  58.3733 0003330 186.0921 174.0296 15.59720854182549
